[ {
  "OBJECT_ID": "1966-087A",
  "OBJECT_NAME": "ESSA 3 (TOS-A)",
  "NORAD_CAT_ID": "2435",
  "OBJECT_TYPE": "PAYLOAD",
  "PERIOD": "114.573",
  "INCLINATION": "101.0864",
  "APOGEE": "1486.021",
  "PERIGEE": "1386.034",
  "ECCENTRICITY": "0.0063978",
  "MEAN_MOTION": "12.56837333",
  "TLE_LINE1": "1  2435U 66087A   16238.88645082 -.00000044 +00000-0 -15470-4 0  9993",
  "TLE_LINE2": "2  2435 101.0864 325.4378 0063978 010.0418 099.5831 12.56837333288964",
  "LAUNCH_DATE": "1966-10-02",
  "LAUNCH_SITE": "AIR FORCE WESTERN TEST RANGE",
  "OWNER": "UNITED STATES OF AMERICA",
  "ORBIT_TYPE": "Low Earth Orbit",
  "OPERATIONAL_STATUS": "Nonoperational"
}, {
  "OBJECT_ID": "1967-006A",
  "OBJECT_NAME": "ESSA 4 (TOS-B)",
  "NORAD_CAT_ID": "2657",
  "OBJECT_TYPE": "PAYLOAD",
  "PERIOD": "113.400",
  "INCLINATION": "102.0781",
  "APOGEE": "1439.726",
  "PERIGEE": "1325.514",
  "ECCENTRICITY": "0.0073583",
  "MEAN_MOTION": "12.69833497",
  "TLE_LINE1": "1  2657U 67006A   16238.92543314 -.00000031 +00000-0 +87141-4 0  9990",
  "TLE_LINE2": "2  2657 102.0781 229.8305 0073583 116.8410 297.8778 12.69833497297847",
  "LAUNCH_DATE": "1967-01-26",
  "LAUNCH_SITE": "AIR FORCE WESTERN TEST RANGE",
  "OWNER": "UNITED STATES OF AMERICA",
  "ORBIT_TYPE": "Low Earth Orbit",
  "OPERATIONAL_STATUS": "Nonoperational"
}, {
  "OBJECT_ID": "1967-010A",
  "OBJECT_NAME": "OPS 6073 (DMSP 4A F2)",
  "NORAD_CAT_ID": "2669",
  "OBJECT_TYPE": "PAYLOAD",
  "PERIOD": "100.916",
  "INCLINATION": "99.0955",
  "APOGEE": "837.138",
  "PERIGEE": "766.961",
  "ECCENTRICITY": "0.0048868",
  "MEAN_MOTION": "14.26918985",
  "TLE_LINE1": "1 02669U 67010A   16238.64871405 -.00000006  00000-0  17142-4 0  9998",
  "TLE_LINE2": "2 02669  99.0955  83.6388 0048868 296.6988  62.9193 14.26918985573761",
  "LAUNCH_DATE": "1967-02-08",
  "LAUNCH_SITE": "AIR FORCE WESTERN TEST RANGE",
  "OWNER": "UNITED STATES OF AMERICA",
  "ORBIT_TYPE": "Low Earth Orbit",
  "OPERATIONAL_STATUS": "Nonoperational"
}, {
  "OBJECT_ID": "1967-036A",
  "OBJECT_NAME": "ESSA 5",
  "NORAD_CAT_ID": "2757",
  "OBJECT_TYPE": "PAYLOAD",
  "PERIOD": "113.520",
  "INCLINATION": "101.9631",
  "APOGEE": "1421.780",
  "PERIGEE": "1354.366",
  "ECCENTRICITY": "0.0043402",
  "MEAN_MOTION": "12.6849624",
  "TLE_LINE1": "1  2757U 67036A   16238.96319191 -.00000053 +00000-0 -23429-4 0  9996",
  "TLE_LINE2": "2  2757 101.9631 269.0046 0043402 118.4051 303.4023 12.68496240284768",
  "LAUNCH_DATE": "1967-04-20",
  "LAUNCH_SITE": "AIR FORCE WESTERN TEST RANGE",
  "OWNER": "UNITED STATES OF AMERICA",
  "ORBIT_TYPE": "Low Earth Orbit",
  "OPERATIONAL_STATUS": "Nonoperational"
}, {
  "OBJECT_ID": "1967-080A",
  "OBJECT_NAME": "OPS 7202 (DMSP 4A F3)",
  "NORAD_CAT_ID": "2920",
  "OBJECT_TYPE": "PAYLOAD",
  "PERIOD": "101.792",
  "INCLINATION": "99.0455",
  "APOGEE": "871.836",
  "PERIGEE": "815.186",
  "ECCENTRICITY": "0.0039222",
  "MEAN_MOTION": "14.14648165",
  "TLE_LINE1": "1 02920U 67080A   16239.18497277 -.00000017  00000-0  14543-4 0  9990",
  "TLE_LINE2": "2 02920  99.0455  75.4924 0039222 113.2086 247.3224 14.14648165526622",
  "LAUNCH_DATE": "1967-08-23",
  "LAUNCH_SITE": "AIR FORCE WESTERN TEST RANGE",
  "OWNER": "UNITED STATES OF AMERICA",
  "ORBIT_TYPE": "Low Earth Orbit",
  "OPERATIONAL_STATUS": "Nonoperational"
}, {
  "OBJECT_ID": "1967-096A",
  "OBJECT_NAME": "OPS 1264 (DMSP 4A F4)",
  "NORAD_CAT_ID": "2980",
  "OBJECT_TYPE": "PAYLOAD",
  "PERIOD": "98.690",
  "INCLINATION": "99.2329",
  "APOGEE": "766.426",
  "PERIGEE": "625.694",
  "ECCENTRICITY": "0.0099469",
  "MEAN_MOTION": "14.59107103",
  "TLE_LINE1": "1 02980U 67096A   16239.49676822  .00000040  00000-0  20410-4 0  9997",
  "TLE_LINE2": "2 02980  99.2329 227.7798 0099469 159.7378 200.7810 14.59107103585405",
  "LAUNCH_DATE": "1967-10-11",
  "LAUNCH_SITE": "AIR FORCE WESTERN TEST RANGE",
  "OWNER": "UNITED STATES OF AMERICA",
  "ORBIT_TYPE": "Low Earth Orbit",
  "OPERATIONAL_STATUS": "Nonoperational"
}, {
  "OBJECT_ID": "1967-114A",
  "OBJECT_NAME": "ESSA 6 (TOS-D)",
  "NORAD_CAT_ID": "3035",
  "OBJECT_TYPE": "PAYLOAD",
  "PERIOD": "114.813",
  "INCLINATION": "102.1721",
  "APOGEE": "1485.272",
  "PERIGEE": "1408.593",
  "ECCENTRICITY": "0.0048996",
  "MEAN_MOTION": "12.54210884",
  "TLE_LINE1": "1 03035U 67114A   16239.56985395 -.00000044  00000-0  19822-4 0  9996",
  "TLE_LINE2": "2 03035 102.1721 207.1044 0048996  80.6074  27.4518 12.54210884234029",
  "LAUNCH_DATE": "1967-11-10",
  "LAUNCH_SITE": "AIR FORCE WESTERN TEST RANGE",
  "OWNER": "UNITED STATES OF AMERICA",
  "ORBIT_TYPE": "Low Earth Orbit",
  "OPERATIONAL_STATUS": "Nonoperational"
}, {
  "OBJECT_ID": "1968-042A",
  "OBJECT_NAME": "OPS 7869 (DMSP 4B F1)",
  "NORAD_CAT_ID": "3266",
  "OBJECT_TYPE": "PAYLOAD",
  "PERIOD": "101.753",
  "INCLINATION": "98.9692",
  "APOGEE": "880.681",
  "PERIGEE": "802.662",
  "ECCENTRICITY": "0.0054031",
  "MEAN_MOTION": "14.15188875",
  "TLE_LINE1": "1 03266U 68042A   16239.20917313 -.00000018  00000-0  13775-4 0  9991",
  "TLE_LINE2": "2 03266  98.9692  87.1172 0054031  94.4964 266.2384 14.15188875406848",
  "LAUNCH_DATE": "1968-05-23",
  "LAUNCH_SITE": "AIR FORCE WESTERN TEST RANGE",
  "OWNER": "UNITED STATES OF AMERICA",
  "ORBIT_TYPE": "Low Earth Orbit",
  "OPERATIONAL_STATUS": "Nonoperational"
}, {
  "OBJECT_ID": "1968-069A",
  "OBJECT_NAME": "ESSA 7 (TOS-E)",
  "NORAD_CAT_ID": "3345",
  "OBJECT_TYPE": "PAYLOAD",
  "PERIOD": "114.926",
  "INCLINATION": "101.5521",
  "APOGEE": "1472.730",
  "PERIGEE": "1431.461",
  "ECCENTRICITY": "0.0026352",
  "MEAN_MOTION": "12.52970629",
  "TLE_LINE1": "1 03345U 68069A   16238.75979245 -.00000047  00000-0 -23105-4 0  9990",
  "TLE_LINE2": "2 03345 101.5521 284.4954 0026352 325.5215 144.9002 12.52970629196749",
  "LAUNCH_DATE": "1968-08-16",
  "LAUNCH_SITE": "AIR FORCE WESTERN TEST RANGE",
  "OWNER": "UNITED STATES OF AMERICA",
  "ORBIT_TYPE": "Low Earth Orbit",
  "OPERATIONAL_STATUS": "Nonoperational"
}, {
  "OBJECT_ID": "1968-092A",
  "OBJECT_NAME": "OPS 4078 (DMSP 4B F2)",
  "NORAD_CAT_ID": "3510",
  "OBJECT_TYPE": "PAYLOAD",
  "PERIOD": "100.905",
  "INCLINATION": "98.3358",
  "APOGEE": "824.065",
  "PERIGEE": "778.933",
  "ECCENTRICITY": "0.003143",
  "MEAN_MOTION": "14.27083058",
  "TLE_LINE1": "1 03510U 68092A   16238.63615497 -.00000014  00000-0  11067-4 0  9990",
  "TLE_LINE2": "2 03510  98.3358  98.1090 0031430  75.5542 284.9124 14.27083058486582",
  "LAUNCH_DATE": "1968-10-23",
  "LAUNCH_SITE": "AIR FORCE WESTERN TEST RANGE",
  "OWNER": "UNITED STATES OF AMERICA",
  "ORBIT_TYPE": "Low Earth Orbit",
  "OPERATIONAL_STATUS": "Nonoperational"
}, {
  "OBJECT_ID": "1968-114A",
  "OBJECT_NAME": "ESSA 8 (TOS-F)",
  "NORAD_CAT_ID": "3615",
  "OBJECT_TYPE": "PAYLOAD",
  "PERIOD": "114.631",
  "INCLINATION": "101.2388",
  "APOGEE": "1463.629",
  "PERIGEE": "1413.756",
  "ECCENTRICITY": "0.0031901",
  "MEAN_MOTION": "12.56194555",
  "TLE_LINE1": "1 03615U 68114A   16239.57279204 -.00000028  00000-0  83363-4 0  9990",
  "TLE_LINE2": "2 03615 101.2388 245.3606 0031901 155.1479 323.6183 12.56194555187265",
  "LAUNCH_DATE": "1968-12-15",
  "LAUNCH_SITE": "AIR FORCE WESTERN TEST RANGE",
  "OWNER": "UNITED STATES OF AMERICA",
  "ORBIT_TYPE": "Low Earth Orbit",
  "OPERATIONAL_STATUS": "Nonoperational"
}, {
  "OBJECT_ID": "1969-016A",
  "OBJECT_NAME": "ESSA 9 (TOS-G)",
  "NORAD_CAT_ID": "3764",
  "OBJECT_TYPE": "PAYLOAD",
  "PERIOD": "115.215",
  "INCLINATION": "101.8405",
  "APOGEE": "1505.195",
  "PERIGEE": "1425.188",
  "ECCENTRICITY": "0.0051003",
  "MEAN_MOTION": "12.49833916",
  "TLE_LINE1": "1 03764U 69016A   16238.77916514 -.00000057  00000-0 -77927-4 0  9992",
  "TLE_LINE2": "2 03764 101.8405 297.2229 0051003 185.5419 283.5103 12.49833916540711",
  "LAUNCH_DATE": "1969-02-26",
  "LAUNCH_SITE": "AIR FORCE EASTERN TEST RANGE",
  "OWNER": "UNITED STATES OF AMERICA",
  "ORBIT_TYPE": "Low Earth Orbit",
  "OPERATIONAL_STATUS": "Nonoperational"
}, {
  "OBJECT_ID": "1969-037A",
  "OBJECT_NAME": "NIMBUS 3",
  "NORAD_CAT_ID": "3890",
  "OBJECT_TYPE": "PAYLOAD",
  "PERIOD": "107.262",
  "INCLINATION": "99.954",
  "APOGEE": "1129.992",
  "PERIGEE": "1069.937",
  "ECCENTRICITY": "0.0040154",
  "MEAN_MOTION": "13.42504885",
  "TLE_LINE1": "1 03890U 69037A   16239.38848001 -.00000049  00000-0 -90881-5 0  9994",
  "TLE_LINE2": "2 03890  99.9540 148.4272 0040154  47.0726  60.2013 13.42504885320609",
  "LAUNCH_DATE": "1969-04-14",
  "LAUNCH_SITE": "AIR FORCE WESTERN TEST RANGE",
  "OWNER": "UNITED STATES OF AMERICA",
  "ORBIT_TYPE": "Low Earth Orbit",
  "OPERATIONAL_STATUS": "Nonoperational"
}, {
  "OBJECT_ID": "1969-062A",
  "OBJECT_NAME": "OPS 1127 (DMSP 4B F3)",
  "NORAD_CAT_ID": "4047",
  "OBJECT_TYPE": "PAYLOAD",
  "PERIOD": "100.801",
  "INCLINATION": "98.8457",
  "APOGEE": "827.893",
  "PERIGEE": "765.247",
  "ECCENTRICITY": "0.0043658",
  "MEAN_MOTION": "14.28553911",
  "TLE_LINE1": "1 04047U 69062A   16239.20309428  .00000007  00000-0  21176-4 0  9995",
  "TLE_LINE2": "2 04047  98.8457  65.9040 0043658 299.8219  59.8625 14.28553911450247",
  "LAUNCH_DATE": "1969-07-23",
  "LAUNCH_SITE": "AIR FORCE WESTERN TEST RANGE",
  "OWNER": "UNITED STATES OF AMERICA",
  "ORBIT_TYPE": "Low Earth Orbit",
  "OPERATIONAL_STATUS": "Nonoperational"
}, {
  "OBJECT_ID": "1970-008A",
  "OBJECT_NAME": "ITOS 1 (TIROS M)",
  "NORAD_CAT_ID": "4320",
  "OBJECT_TYPE": "PAYLOAD",
  "PERIOD": "115.012",
  "INCLINATION": "101.8754",
  "APOGEE": "1478.584",
  "PERIGEE": "1433.365",
  "ECCENTRICITY": "0.002886",
  "MEAN_MOTION": "12.52040163",
  "TLE_LINE1": "1 04320U 70008A   16239.15345955 -.00000057  00000-0 -71600-4 0  9994",
  "TLE_LINE2": "2 04320 101.8754 301.2368 0028860  39.6212  14.9155 12.52040163325994",
  "LAUNCH_DATE": "1970-01-23",
  "LAUNCH_SITE": "AIR FORCE WESTERN TEST RANGE",
  "OWNER": "UNITED STATES OF AMERICA",
  "ORBIT_TYPE": "Low Earth Orbit",
  "OPERATIONAL_STATUS": "Nonoperational"
}]